NORAD_CAT_ID,OBJECT_NAME,OBJECT_TYPE,EPOCH,MEAN_MOTION,ECCENTRICITY,INCLINATION,RA_OF_ASC_NODE,ARG_OF_PERICENTER,MEAN_ANOMALY,BSTAR,MEAN_MOTION_DOT,MEAN_MOTION_DDOT,TLE_LINE0,TLE_LINE1,TLE_LINE2,SEMIMAJOR_AXIS,PERIOD,APOGEE,PERIGEE,DECAYED
55297.0,STARLINK-5284,PAYLOAD,2024-03-01 19:27:31,14.98337175,0.0002903,69.9989,84.8475,266.9906,93.092,-0.00012997,-1.644e-05,0.0,0 STARLINK-5284,1 55297U 23010AE  24061.81078467 -.00001644  00000-0 -12997-3 0  9996,2 55297  69.9989  84.8475 0002903 266.9906  93.0920 14.98337175 62434,6950.171,96.107,574.053,570.018,0.0
55297.0,STARLINK-5284,PAYLOAD,2024-03-02 11:28:52,14.98330194,0.0003061,69.9987,83.1644,270.2597,89.8211,0.00011721,1.306e-05,0.0,0 STARLINK-5284,1 55297U 23010AE  24062.47838288  .00001306  00000-0  11721-3 0  9991,2 55297  69.9987  83.1644 0003061 270.2597  89.8211 14.98330194 62847,6950.192,96.107,574.185,569.93,0.0
55297.0,STARLINK-5284,PAYLOAD,2024-03-03 05:06:21,14.98324058,0.0002913,69.9993,81.3136,274.5635,85.5191,-6.6034e-06,-1.72e-06,0.0,0 STARLINK-5284,1 55297U 23010AE  24063.21275265 -.00000172  00000-0 -66034-5 0  9995,2 55297  69.9993  81.3136 0002913 274.5635  85.5191 14.98324058 62645,6950.211,96.107,574.101,570.052,0.0
55297.0,STARLINK-5284,PAYLOAD,2024-03-03 09:54:46,14.98323458,0.0002813,69.9994,80.8084,273.7837,86.3,-6.0248e-06,-1.65e-06,0.0,0 STARLINK-5284,1 55297U 23010AE  24063.41303374 -.00000165  00000-0 -60248-5 0  9993,2 55297  69.9994  80.8084 0002813 273.7837  86.3000 14.98323458 62984,6950.213,96.107,574.033,570.123,0.0
55297.0,STARLINK-5284,PAYLOAD,2024-03-04 05:08:22,14.98331749,0.0002707,69.9994,78.7897,269.3096,90.7753,6.0126e-05,6.25e-06,0.0,0 STARLINK-5284,1 55297U 23010AE  24064.21414670  .00000625  00000-0  60126-4 0  9997,2 55297  69.9994  78.7897 0002707 269.3096  90.7753 14.98331749 62797,6950.187,96.107,573.934,570.171,0.0
55297.0,STARLINK-5284,PAYLOAD,2024-03-04 09:56:45,14.98351148,0.0002343,69.9994,78.2833,259.187,100.9025,-0.00022113,-2.732e-05,0.0,0 STARLINK-5284,1 55297U 23010AE  24064.41442034 -.00002732  00000-0 -22113-3 0  9990,2 55297  69.9994  78.2833 0002343 259.1870 100.9025 14.98351148 62820,6950.127,96.106,573.621,570.364,0.0
55297.0,STARLINK-5284,PAYLOAD,2024-03-04 17:57:27,14.98330378,0.0002377,70.0011,77.4399,286.4198,73.67,-6.3358e-06,-1.68e-06,0.0,0 STARLINK-5284,1 55297U 23010AE  24064.74822950 -.00000168  00000-0 -63358-5 0  9994,2 55297  70.0011  77.4399 0002377 286.4198  73.6700 14.98330378 62877,6950.192,96.107,573.709,570.405,0.0
55297.0,STARLINK-5284,PAYLOAD,2024-03-05 03:34:15,14.98321696,0.0002915,69.9986,76.4308,270.6174,89.4651,-6.7684e-05,-9e-06,0.0,0 STARLINK-5284,1 55297U 23010AE  24065.14879497 -.00000900  00000-0 -67684-4 0  9996,2 55297  69.9986  76.4308 0002915 270.6174  89.4651 14.98321696 62931,6950.219,96.108,574.11,570.058,0.0
55297.0,STARLINK-5284,PAYLOAD,2024-03-05 11:34:56,14.98322054,0.000259,69.9997,75.5903,264.5511,95.5352,-4.0123e-05,-5.72e-06,0.0,0 STARLINK-5284,1 55297U 23010AE  24065.48259559 -.00000572  00000-0 -40123-4 0  9998,2 55297  69.9997  75.5903 0002590 264.5511  95.5352 14.98322054 63295,6950.217,96.108,573.883,570.282,0.0
55297.0,STARLINK-5284,PAYLOAD,2024-03-06 03:36:16,14.98330742,0.0002948,69.9993,73.9068,270.0627,90.0194,2.0221e-05,1.48e-06,0.0,0 STARLINK-5284,1 55297U 23010AE  24066.15018881  .00000148  00000-0  20221-4 0  9998,2 55297  69.9993  73.9068 0002948 270.0627  90.0194 14.98330742 63086,6950.191,96.107,574.105,570.007,0.0
55297.0,STARLINK-5284,PAYLOAD,2024-03-06 10:00:48,14.98335321,0.000285,69.9992,73.2334,273.5613,86.522,-3.1322e-05,-4.67e-06,0.0,0 STARLINK-5284,1 55297U 23010AE  24066.41722693 -.00000467  00000-0 -31322-4 0  9990,2 55297  69.9992  73.2334 0002850 273.5613  86.5220 14.98335321 63436,6950.176,96.107,574.022,570.061,0.0
55297.0,STARLINK-5284,PAYLOAD,2024-03-07 03:38:17,14.9832642,0.0002893,69.999,71.3811,273.1618,86.921,6.5342e-05,6.87e-06,0.0,0 STARLINK-5284,1 55297U 23010AE  24067.15158910  .00000687  00000-0  65342-4 0  9998,2 55297  69.9990  71.3811 0002893 273.1618  86.9210 14.98326420 63232,6950.204,96.107,574.08,570.058,0.0
55297.0,STARLINK-5284,PAYLOAD,2024-03-07 10:02:49,14.98329525,0.0002911,69.999,70.7075,272.6835,87.3991,7.6965e-05,8.25e-06,0.0,0 STARLINK-5284,1 55297U 23010AE  24067.41862688  .00000825  00000-0  76965-4 0  9998,2 55297  69.9990  70.7075 0002911 272.6835  87.3991 14.98329525 63581,6950.194,96.107,574.083,570.036,0.0
55297.0,STARLINK-5284,PAYLOAD,2024-03-08 03:40:18,14.98315149,0.0003392,69.9993,68.856,268.3378,91.7392,0.0002993,3.479e-05,0.0,0 STARLINK-5284,1 55297U 23010AE  24068.15298856  .00003479  00000-0  29930-3 0  9997,2 55297  69.9993  68.8560 0003392 268.3378  91.7392 14.98315149 63388,6950.239,96.108,574.461,569.746,0.0
55297.0,STARLINK-5284,PAYLOAD,2024-03-08 05:16:26,14.98331664,0.0002912,69.9993,68.6877,272.1125,87.9701,1.2765e-05,5.9e-07,0.0,0 STARLINK-5284,1 55297U 23010AE  24068.21974653  .00000059  00000-0  12765-4 0  9990,2 55297  69.9993  68.6877 0002912 272.1125  87.9701 14.98331664 63399,6950.188,96.107,574.077,570.029,0.0
55297.0,STARLINK-5284,PAYLOAD,2024-03-08 10:04:50,14.98333563,0.0002909,69.9994,68.1827,272.3159,87.7666,2.5717e-05,2.14e-06,0.0,0 STARLINK-5284,1 55297U 23010AE  24068.42002449  .00000214  00000-0  25717-4 0  9992,2 55297  69.9994  68.1827 0002909 272.3159  87.7666 14.98333563 63731,6950.182,96.107,574.069,570.025,0.0
55297.0,STARLINK-5284,PAYLOAD,2024-03-08 22:53:54,14.9832783,0.0002564,69.9998,66.8362,269.2234,90.8631,-2.1643e-05,-3.51e-06,0.0,0 STARLINK-5284,1 55297U 23010AE  24068.95410872 -.00000351  00000-0 -21643-4 0  9991,2 55297  69.9998  66.8362 0002564 269.2234  90.8631 14.98327830 63816,6950.2,96.107,573.847,570.283,0.0
55297.0,STARLINK-5284,PAYLOAD,2024-03-09 05:18:25,14.98342382,0.0002176,70.0015,66.164,256.1668,103.9249,0.00017611,2.01e-05,0.0,0 STARLINK-5284,1 55297U 23010AE  24069.22113286  .00002010  00000-0  17611-3 0  9992,2 55297  70.0015  66.1640 0002176 256.1668 103.9249 14.98342382 63546,6950.155,96.106,573.532,570.507,0.0
55297.0,STARLINK-5284,PAYLOAD,2024-03-09 10:06:49,14.98349204,0.000264,69.9998,65.6574,270.5092,89.5765,0.00020573,2.364e-05,0.0,0 STARLINK-5284,1 55297U 23010AE  24069.42140590  .00002364  00000-0  20573-3 0  9995,2 55297  69.9998  65.6574 0002640 270.5092  89.5765 14.98349204 63889,6950.134,96.106,573.833,570.164,0.0
55297.0,STARLINK-5284,PAYLOAD,2024-03-09 16:31:21,14.98386825,0.0002541,70.0024,64.9824,280.4261,79.6612,-0.00075218,-9.069e-05,0.0,0 STARLINK-5284,1 55297U 23010AE  24069.68844129 -.00009069  00000-0 -75218-3 0  9999,2 55297  70.0024  64.9824 0002541 280.4261  79.6612 14.98386825 63612,6950.017,96.103,573.648,570.116,0.0
55297.0,STARLINK-5284,PAYLOAD,2024-03-09 22:55:54,14.9833901,0.0002143,70.0037,64.3099,270.66,89.4313,9.2662e-06,1.8e-07,0.0,0 STARLINK-5284,1 55297U 23010AE  24069.95549560  .00000018  00000-0  92662-5 0  9997,2 55297  70.0037  64.3099 0002143 270.6600  89.4313 14.98339010 63969,6950.165,96.106,573.519,570.541,0.0
55297.0,STARLINK-5284,PAYLOAD,2024-03-10 03:44:19,14.98328271,0.0002767,69.9998,63.8064,270.0524,90.0318,-8.0576e-05,-1.054e-05,0.0,0 STARLINK-5284,1 55297U 23010AE  24070.15578258 -.00001054  00000-0 -80576-4 0  9990,2 55297  69.9998  63.8064 0002767 270.0524  90.0318 14.98328271 63688,6950.198,96.107,573.986,570.14,0.0
55297.0,STARLINK-5284,PAYLOAD,2024-03-10 10:08:51,14.983267,0.000269,70.0003,63.1352,261.4839,98.6015,-8.0521e-05,-1.053e-05,0.0,0 STARLINK-5284,1 55297U 23010AE  24070.42282323 -.00001053  00000-0 -80521-4 0  9994,2 55297  70.0003  63.1352 0002690 261.4839  98.6015 14.98326700 64032,6950.203,96.107,573.938,570.198,0.0
55297.0,STARLINK-5284,PAYLOAD,2024-03-10 16:33:24,14.98323922,0.0002503,70.0009,62.4606,269.1292,90.958,-8.5268e-05,-1.11e-05,0.0,0 STARLINK-5284,1 55297U 23010AE  24070.68986662 -.00001110  00000-0 -85268-4 0  9996,2 55297  70.0009  62.4606 0002503 269.1292  90.9580 14.98323922 64072,6950.212,96.107,573.816,570.337,0.0
55297.0,STARLINK-5284,PAYLOAD,2024-03-11 05:22:28,14.98332842,0.0002894,69.9997,61.1126,270.1544,89.9284,-0.00023795,-2.931e-05,0.0,0 STARLINK-5284,1 55297U 23010AE  24071.22394540 -.00002931  00000-0 -23795-3 0  9993,2 55297  69.9997  61.1126 0002894 270.1544  89.9284 14.98332842 63847,6950.184,96.107,574.06,570.038,0.0
55297.0,STARLINK-5284,PAYLOAD,2024-03-11 08:34:45,14.98331148,0.0002685,70.0005,60.7774,265.7232,94.3621,-0.00021541,-2.662e-05,0.0,0 STARLINK-5284,1 55297U 23010AE  24071.35746569 -.00002662  00000-0 -21541-3 0  9997,2 55297  70.0005  60.7774 0002685 265.7232  94.3621 14.98331148 64176,6950.189,96.107,573.92,570.188,0.0
55297.0,STARLINK-5284,PAYLOAD,2024-03-12 05:24:29,14.98324822,0.0002946,69.9997,58.5878,268.7926,91.2896,4.7637e-05,4.75e-06,0.0,0 STARLINK-5284,1 55297U 23010AE  24072.22534290  .00000475  00000-0  47637-4 0  9993,2 55297  69.9997  58.5878 0002946 268.7926  91.2896 14.98324822 63996,6950.209,96.107,574.121,570.026,0.0
55297.0,STARLINK-5284,PAYLOAD,2024-03-12 16:37:26,14.98325525,0.0002918,69.9999,57.4092,269.1394,90.9431,4.5927e-05,4.55e-06,0.0,0 STARLINK-5284,1 55297U 23010AE  24072.69266377  .00000455  00000-0  45927-4 0  9990,2 55297  69.9999  57.4092 0002918 269.1394  90.9431 14.98325525 64372,6950.207,96.107,574.1,570.044,0.0
55297.0,STARLINK-5284,PAYLOAD,2024-03-13 05:26:30,14.98325739,0.0003034,69.9996,56.0614,268.7623,91.3188,9.0726e-05,9.9e-06,0.0,0 STARLINK-5284,1 55297U 23010AE  24073.22674333  .00000990  00000-0  90726-4 0  9996,2 55297  69.9996  56.0614 0003034 268.7623  91.3188 14.98325739 64140,6950.206,96.107,574.18,569.962,0.0
55297.0,STARLINK-5284,PAYLOAD,2024-03-13 08:38:46,14.98328215,0.0002765,70.0001,55.7257,264.2479,95.8365,8.8341e-05,9.61e-06,0.0,0 STARLINK-5284,1 55297U 23010AE  24073.36026207  .00000961  00000-0  88341-4 0  9990,2 55297  70.0001  55.7257 0002765 264.2479  95.8365 14.98328215 64473,6950.198,96.107,573.985,570.142,0.0
